[{"OBJECT_NAME":"STARLINK-1738","OBJECT_ID":"2020-062M","EPOCH":"2026-03-05T04:39:51.016608","MEAN_MOTION":16.02308388,"ECCENTRICITY":0.000487,"INCLINATION":53.0268,"RA_OF_ASC_NODE":303.6203,"ARG_OF_PERICENTER":162.6619,"MEAN_ANOMALY":197.4578,"EPHEMERIS_TYPE":0,"CLASSIFICATION_TYPE":"U","NORAD_CAT_ID":46336,"ELEMENT_SET_NO":999,"REV_AT_EPOCH":30493,"BSTAR":0.0013254,"MEAN_MOTION_DOT":0.00791763,"MEAN_MOTION_DDOT":0.00031249},{"OBJECT_NAME":"STARLINK-1687","OBJECT_ID":"2020-070K","EPOCH":"2026-03-05T06:39:53.838144","MEAN_MOTION":16.2970497,"ECCENTRICITY":0.0005314,"INCLINATION":53.0246,"RA_OF_ASC_NODE":112.938,"ARG_OF_PERICENTER":358.4578,"MEAN_ANOMALY":1.6446,"EPHEMERIS_TYPE":0,"CLASSIFICATION_TYPE":"U","NORAD_CAT_ID":46541,"ELEMENT_SET_NO":999,"REV_AT_EPOCH":30000,"BSTAR":0.0010807,"MEAN_MOTION_DOT":0.04932673,"MEAN_MOTION_DDOT":1.2122e-5},{"OBJECT_NAME":"STARLINK-1712","OBJECT_ID":"2020-070BB","EPOCH":"2026-03-05T04:00:01.999584","MEAN_MOTION":15.96980719,"ECCENTRICITY":0.000655,"INCLINATION":53.0298,"RA_OF_ASC_NODE":103.6625,"ARG_OF_PERICENTER":348.4341,"MEAN_ANOMALY":358.9454,"EPHEMERIS_TYPE":0,"CLASSIFICATION_TYPE":"U","NORAD_CAT_ID":46581,"ELEMENT_SET_NO":999,"REV_AT_EPOCH":601,"BSTAR":0.0012318,"MEAN_MOTION_DOT":0.00543891,"MEAN_MOTION_DDOT":0.00013525},{"OBJECT_NAME":"STARLINK-1955","OBJECT_ID":"2021-009J","EPOCH":"2026-03-05T04:00:01.999584","MEAN_MOTION":15.93579522,"ECCENTRICITY":0.0003147,"INCLINATION":53.0361,"RA_OF_ASC_NODE":348.2828,"ARG_OF_PERICENTER":137.6339,"MEAN_ANOMALY":23.189,"EPHEMERIS_TYPE":0,"CLASSIFICATION_TYPE":"U","NORAD_CAT_ID":47556,"ELEMENT_SET_NO":999,"REV_AT_EPOCH":602,"BSTAR":0.0014809,"MEAN_MOTION_DOT":0.00543166,"MEAN_MOTION_DDOT":0.00012924},{"OBJECT_NAME":"WILDTRACKCUBE-SIMBA","OBJECT_ID":"2021-022K","EPOCH":"2026-03-05T06:00:38.704608","MEAN_MOTION":16.26321229,"ECCENTRICITY":0.0004861,"INCLINATION":97.3776,"RA_OF_ASC_NODE":346.2757,"ARG_OF_PERICENTER":147.5892,"MEAN_ANOMALY":212.57,"EPHEMERIS_TYPE":0,"CLASSIFICATION_TYPE":"U","NORAD_CAT_ID":47941,"ELEMENT_SET_NO":999,"REV_AT_EPOCH":27513,"BSTAR":0.0011795,"MEAN_MOTION_DOT":0.03693738,"MEAN_MOTION_DDOT":2.4791e-6},{"OBJECT_NAME":"JILIN-1 GAOFEN 3D02","OBJECT_ID":"2021-061C","EPOCH":"2026-03-05T04:59:33.629568","MEAN_MOTION":16.17082366,"ECCENTRICITY":0.0005424,"INCLINATION":97.2889,"RA_OF_ASC_NODE":144.8866,"ARG_OF_PERICENTER":255.4494,"MEAN_ANOMALY":104.6192,"EPHEMERIS_TYPE":0,"CLASSIFICATION_TYPE":"U","NORAD_CAT_ID":49005,"ELEMENT_SET_NO":999,"REV_AT_EPOCH":26009,"BSTAR":0.0011659,"MEAN_MOTION_DOT":0.0167562,"MEAN_MOTION_DDOT":0.0026322},{"OBJECT_NAME":"STARLINK-3269","OBJECT_ID":"2021-125AQ","EPOCH":"2026-03-05T05:51:50.523264","MEAN_MOTION":16.29642264,"ECCENTRICITY":0.0008454,"INCLINATION":53.191,"RA_OF_ASC_NODE":152.9185,"ARG_OF_PERICENTER":336.2671,"MEAN_ANOMALY":23.7982,"EPHEMERIS_TYPE":0,"CLASSIFICATION_TYPE":"U","NORAD_CAT_ID":50194,"ELEMENT_SET_NO":999,"REV_AT_EPOCH":23761,"BSTAR":0.0012888,"MEAN_MOTION_DOT":0.05888121,"MEAN_MOTION_DDOT":1.2136e-5},{"OBJECT_NAME":"LYNK TOWER 1","OBJECT_ID":"2022-033F","EPOCH":"2026-03-04T05:15:12.197088","MEAN_MOTION":16.09956223,"ECCENTRICITY":0.0005931,"INCLINATION":97.2538,"RA_OF_ASC_NODE":168.4303,"ARG_OF_PERICENTER":200.6516,"MEAN_ANOMALY":159.4529,"EPHEMERIS_TYPE":0,"CLASSIFICATION_TYPE":"U","NORAD_CAT_ID":52162,"ELEMENT_SET_NO":999,"REV_AT_EPOCH":22036,"BSTAR":0.00081573213,"MEAN_MOTION_DOT":0.00752707,"MEAN_MOTION_DDOT":0.0003123087},{"OBJECT_NAME":"STARLINK-3767","OBJECT_ID":"2022-045AX","EPOCH":"2026-03-04T21:04:21.834336","MEAN_MOTION":16.01114379,"ECCENTRICITY":0.0001788,"INCLINATION":53.2117,"RA_OF_ASC_NODE":196.8747,"ARG_OF_PERICENTER":120.7041,"MEAN_ANOMALY":239.4168,"EPHEMERIS_TYPE":0,"CLASSIFICATION_TYPE":"U","NORAD_CAT_ID":52376,"ELEMENT_SET_NO":999,"REV_AT_EPOCH":21539,"BSTAR":0.0021826,"MEAN_MOTION_DOT":0.0120694,"MEAN_MOTION_DDOT":0.0007779},{"OBJECT_NAME":"NUSAT-28 (ALICE LEE)","OBJECT_ID":"2022-057R","EPOCH":"2026-03-05T06:25:46.311168","MEAN_MOTION":15.9756971,"ECCENTRICITY":0.0007293,"INCLINATION":97.4997,"RA_OF_ASC_NODE":213.6767,"ARG_OF_PERICENTER":288.9456,"MEAN_ANOMALY":71.103,"EPHEMERIS_TYPE":0,"CLASSIFICATION_TYPE":"U","NORAD_CAT_ID":52747,"ELEMENT_SET_NO":999,"REV_AT_EPOCH":21134,"BSTAR":0.0019107,"MEAN_MOTION_DOT":0.0084352,"MEAN_MOTION_DDOT":0.00032571},{"OBJECT_NAME":"STARLINK-6201","OBJECT_ID":"2023-064AQ","EPOCH":"2026-03-05T04:00:01.999584","MEAN_MOTION":15.98029262,"ECCENTRICITY":0.0004008,"INCLINATION":69.995,"RA_OF_ASC_NODE":126.4731,"ARG_OF_PERICENTER":280.8858,"MEAN_ANOMALY":84.1219,"EPHEMERIS_TYPE":0,"CLASSIFICATION_TYPE":"U","NORAD_CAT_ID":56486,"ELEMENT_SET_NO":999,"REV_AT_EPOCH":590,"BSTAR":0.0027737,"MEAN_MOTION_DOT":0.01257979,"MEAN_MOTION_DDOT":0.00081145},{"OBJECT_NAME":"SHIYAN-25 (SY-25)","OBJECT_ID":"2023-087A","EPOCH":"2026-03-05T05:12:07.221600","MEAN_MOTION":16.0102763,"ECCENTRICITY":0.001158,"INCLINATION":96.7171,"RA_OF_ASC_NODE":125.3058,"ARG_OF_PERICENTER":244.9878,"MEAN_ANOMALY":115.0201,"EPHEMERIS_TYPE":0,"CLASSIFICATION_TYPE":"U","NORAD_CAT_ID":57047,"ELEMENT_SET_NO":999,"REV_AT_EPOCH":15817,"BSTAR":4.063e-5,"MEAN_MOTION_DOT":0.0002139,"MEAN_MOTION_DDOT":2.1405e-6},{"OBJECT_NAME":"STARLINK-6151","OBJECT_ID":"2023-090T","EPOCH":"2026-03-05T06:54:26.047872","MEAN_MOTION":16.21391943,"ECCENTRICITY":0.0014426,"INCLINATION":42.9676,"RA_OF_ASC_NODE":175.3185,"ARG_OF_PERICENTER":353.5527,"MEAN_ANOMALY":6.5171,"EPHEMERIS_TYPE":0,"CLASSIFICATION_TYPE":"U","NORAD_CAT_ID":57118,"ELEMENT_SET_NO":999,"REV_AT_EPOCH":15117,"BSTAR":0.0009721,"MEAN_MOTION_DOT":0.02248946,"MEAN_MOTION_DDOT":8.9503e-6},{"OBJECT_NAME":"STARLINK-30210","OBJECT_ID":"2023-096C","EPOCH":"2026-03-05T06:32:47.594976","MEAN_MOTION":16.05794625,"ECCENTRICITY":0.002368,"INCLINATION":42.9628,"RA_OF_ASC_NODE":163.2028,"ARG_OF_PERICENTER":11.4952,"MEAN_ANOMALY":348.6464,"EPHEMERIS_TYPE":0,"CLASSIFICATION_TYPE":"U","NORAD_CAT_ID":57292,"ELEMENT_SET_NO":999,"REV_AT_EPOCH":14780,"BSTAR":0.0013688,"MEAN_MOTION_DOT":0.01061307,"MEAN_MOTION_DDOT":0.00061948},{"OBJECT_NAME":"STARLINK-30232","OBJECT_ID":"2023-096P","EPOCH":"2026-03-05T07:07:06.919968","MEAN_MOTION":16.06410497,"ECCENTRICITY":0.0023307,"INCLINATION":42.97,"RA_OF_ASC_NODE":162.6316,"ARG_OF_PERICENTER":12.6375,"MEAN_ANOMALY":347.5085,"EPHEMERIS_TYPE":0,"CLASSIFICATION_TYPE":"U","NORAD_CAT_ID":57303,"ELEMENT_SET_NO":999,"REV_AT_EPOCH":14779,"BSTAR":0.0013836,"MEAN_MOTION_DOT":0.01112805,"MEAN_MOTION_DDOT":0.00069844},{"OBJECT_NAME":"QIANKUN-1","OBJECT_ID":"2023-103B","EPOCH":"2026-03-04T12:56:19.761504","MEAN_MOTION":16.08867585,"ECCENTRICITY":0.0026181,"INCLINATION":96.194,"RA_OF_ASC_NODE":115.4027,"ARG_OF_PERICENTER":168.6193,"MEAN_ANOMALY":191.5691,"EPHEMERIS_TYPE":0,"CLASSIFICATION_TYPE":"U","NORAD_CAT_ID":57422,"ELEMENT_SET_NO":999,"REV_AT_EPOCH":15048,"BSTAR":1.1119e-6,"MEAN_MOTION_DOT":4.77e-6,"MEAN_MOTION_DDOT":1.6856e-6}]
