STARLINK-1738           
1 46336U 20062M   26064.19434047  .00791763  31249-3  13254-2 0  9994
2 46336  53.0268 303.6203 0004870 162.6619 197.4578 16.02308388304934
STARLINK-1687           
1 46541U 20070K   26064.27770646  .04932673  12122-4  10807-2 0  9990
2 46541  53.0246 112.9380 0005314 358.4578   1.6446 16.29704970300008
STARLINK-1712           
1 46581U 20070BB  26064.16668981  .00543891  13525-3  12318-2 0  9992
2 46581  53.0298 103.6625 0006550 348.4341 358.9454 15.96980719  6019
STARLINK-1955           
1 47556U 21009J   26064.16668981  .00543166  12924-3  14809-2 0  9992
2 47556  53.0361 348.2828 0003147 137.6339  23.1890 15.93579522  6028
WILDTRACKCUBE-SIMBA     
1 47941U 21022K   26064.25044797  .03693738  24791-5  11795-2 0  9990
2 47941  97.3776 346.2757 0004861 147.5892 212.5700 16.26321229275134
JILIN-1 GAOFEN 3D02     
1 49005U 21061C   26064.20802812  .01675620  26322-2  11659-2 0  9997
2 49005  97.2889 144.8866 0005424 255.4494 104.6192 16.17082366260098
STARLINK-3269           
1 50194U 21125AQ  26064.24433476  .05888121  12136-4  12888-2 0  9990
2 50194  53.1910 152.9185 0008454 336.2671  23.7982 16.29642264237612
LYNK TOWER 1            
1 52162U 22033F   26063.21889117  .00752707  31231-3  81573-3 0  9998
2 52162  97.2538 168.4303 0005931 200.6516 159.4529 16.09956223220366
STARLINK-3767           
1 52376U 22045AX  26063.87803049  .01206940  77790-3  21826-2 0  9998
2 52376  53.2117 196.8747 0001788 120.7041 239.4168 16.01114379215391
NUSAT-28 (ALICE LEE)    
1 52747U 22057R   26064.26789712  .00843520  32571-3  19107-2 0  9994
2 52747  97.4997 213.6767 0007293 288.9456  71.1030 15.97569710211340
STARLINK-6201           
1 56486U 23064AQ  26064.16668981  .01257979  81145-3  27737-2 0  9997
2 56486  69.9950 126.4731 0004008 280.8858  84.1219 15.98029262  5907
SHIYAN-25 (SY-25)       
1 57047U 23087A   26064.21675025  .00021390  21405-5  40630-4 0  9998
2 57047  96.7171 125.3058 0011580 244.9878 115.0201 16.01027630158175
STARLINK-6151           
1 57118U 23090T   26064.28780148  .02248946  89503-5  97210-3 0  9999
2 57118  42.9676 175.3185 0014426 353.5527   6.5171 16.21391943151179
STARLINK-30210          
1 57292U 23096C   26064.27277309  .01061307  61948-3  13688-2 0  9997
2 57292  42.9628 163.2028 0023680  11.4952 348.6464 16.05794625147801
STARLINK-30232          
1 57303U 23096P   26064.29660787  .01112805  69844-3  13836-2 0  9996
2 57303  42.9700 162.6316 0023307  12.6375 347.5085 16.06410497147794
QIANKUN-1               
1 57422U 23103B   26063.53911761  .00000477  16856-5  11119-5 0  9996
2 57422  96.1940 115.4027 0026181 168.6193 191.5691 16.08867585150487
